{"type": "FeatureCollection", "features": [{"type": "Feature", "properties": {"norad_id": 24946, "name": "IRIDIUM 33", "group": "iridium-33-debris", "lat": 56.287995570921225, "lon": -113.08172774628927, "alt_km": 771.5374642355137, "timestamp": "2025-12-02T21:34:01.655522+00:00", "meta": {"OBJECT_NAME": "IRIDIUM 33", "OBJECT_ID": "1997-051C", "EPOCH": "2025-12-02T12:37:32.111040", "MEAN_MOTION": 14.35025072, "ECCENTRICITY": 0.0006052, "INCLINATION": 86.3871, "RA_OF_ASC_NODE": 72.5083, "ARG_OF_PERICENTER": 240.0734, "MEAN_ANOMALY": 119.9861, "EPHEMERIS_TYPE": 0, "CLASSIFICATION_TYPE": "U", "NORAD_CAT_ID": 24946, "ELEMENT_SET_NO": 999, "REV_AT_EPOCH": 47688, "BSTAR": 0.00017445, "MEAN_MOTION_DOT": 5.16e-06, "MEAN_MOTION_DDOT": 0}, "tle": {"line1": "1 24946U 97051C   25336.52606610  .00000516  00000+0  17445-3 0  9997", "line2": "2 24946  86.3871  72.5083 0006052 240.0734 119.9861 14.35025072476885"}}, "geometry": {"type": "Point", "coordinates": [-113.08172774628927, 56.287995570921225]}}, {"type": "Feature", "properties": {"norad_id": 33773, "name": "IRIDIUM 33 DEB", "group": "iridium-33-debris", "lat": 29.7232093706587, "lon": -117.300098808107, "alt_km": 739.2258332941028, "timestamp": "2025-12-02T21:34:01.655549+00:00", "meta": {"OBJECT_NAME": "IRIDIUM 33 DEB", "OBJECT_ID": "1997-051L", "EPOCH": "2025-12-02T07:33:41.360256", "MEAN_MOTION": 14.43218215, "ECCENTRICITY": 0.0011374, "INCLINATION": 86.4014, "RA_OF_ASC_NODE": 65.0061, "ARG_OF_PERICENTER": 178.6597, "MEAN_ANOMALY": 181.4636, "EPHEMERIS_TYPE": 0, "CLASSIFICATION_TYPE": "U", "NORAD_CAT_ID": 33773, "ELEMENT_SET_NO": 999, "REV_AT_EPOCH": 88197, "BSTAR": 0.00046684, "MEAN_MOTION_DOT": 1.59e-05, "MEAN_MOTION_DDOT": 0}, "tle": {"line1": "1 33773U 97051L   25336.31506204  .00001590  00000+0  46684-3 0  9990", "line2": "2 33773  86.4014  65.0061 0011374 178.6597 181.4636 14.43218215881978"}}, "geometry": {"type": "Point", "coordinates": [-117.300098808107, 29.7232093706587]}}, {"type": "Feature", "properties": {"norad_id": 33775, "name": "IRIDIUM 33 DEB", "group": "iridium-33-debris", "lat": -62.763415038681636, "lon": 46.658915756919534, "alt_km": 764.3986470728614, "timestamp": "2025-12-02T21:34:01.655578+00:00", "meta": {"OBJECT_NAME": "IRIDIUM 33 DEB", "OBJECT_ID": "1997-051N", "EPOCH": "2025-12-02T11:56:22.640064", "MEAN_MOTION": 14.41430982, "ECCENTRICITY": 0.0013115, "INCLINATION": 86.3644, "RA_OF_ASC_NODE": 53.9253, "ARG_OF_PERICENTER": 187.3418, "MEAN_ANOMALY": 189.304, "EPHEMERIS_TYPE": 0, "CLASSIFICATION_TYPE": "U", "NORAD_CAT_ID": 33775, "ELEMENT_SET_NO": 999, "REV_AT_EPOCH": 87993, "BSTAR": 0.00047453, "MEAN_MOTION_DOT": 1.559e-05, "MEAN_MOTION_DDOT": 0}, "tle": {"line1": "1 33775U 97051N   25336.49748426  .00001559  00000+0  47453-3 0  9995", "line2": "2 33775  86.3644  53.9253 0013115 187.3418 189.3040 14.41430982879935"}}, "geometry": {"type": "Point", "coordinates": [46.658915756919534, -62.763415038681636]}}, {"type": "Feature", "properties": {"norad_id": 33776, "name": "IRIDIUM 33 DEB", "group": "iridium-33-debris", "lat": -78.38626316593641, "lon": 67.08896497472166, "alt_km": 766.6221992303208, "timestamp": "2025-12-02T21:34:01.655592+00:00", "meta": {"OBJECT_NAME": "IRIDIUM 33 DEB", "OBJECT_ID": "1997-051P", "EPOCH": "2025-12-02T08:51:58.782240", "MEAN_MOTION": 14.38201921, "ECCENTRICITY": 0.0013268, "INCLINATION": 86.4036, "RA_OF_ASC_NODE": 85.1304, "ARG_OF_PERICENTER": 226.4078, "MEAN_ANOMALY": 196.3304, "EPHEMERIS_TYPE": 0, "CLASSIFICATION_TYPE": "U", "NORAD_CAT_ID": 33776, "ELEMENT_SET_NO": 999, "REV_AT_EPOCH": 87933, "BSTAR": 0.00042987, "MEAN_MOTION_DOT": 1.325e-05, "MEAN_MOTION_DDOT": 0}, "tle": {"line1": "1 33776U 97051P   25336.36943035  .00001325  00000+0  42987-3 0  9993", "line2": "2 33776  86.4036  85.1304 0013268 226.4078 196.3304 14.38201921879332"}}, "geometry": {"type": "Point", "coordinates": [67.08896497472166, -78.38626316593641]}}, {"type": "Feature", "properties": {"norad_id": 33777, "name": "IRIDIUM 33 DEB", "group": "iridium-33-debris", "lat": 4.538196410964248, "lon": -140.80430249567615, "alt_km": 712.1343143198701, "timestamp": "2025-12-02T21:34:01.655604+00:00", "meta": {"OBJECT_NAME": "IRIDIUM 33 DEB", "OBJECT_ID": "1997-051Q", "EPOCH": "2025-12-02T05:54:48.970368", "MEAN_MOTION": 14.55480765, "ECCENTRICITY": 0.0005194, "INCLINATION": 86.3802, "RA_OF_ASC_NODE": 39.767, "ARG_OF_PERICENTER": 298.3236, "MEAN_ANOMALY": 61.7448, "EPHEMERIS_TYPE": 0, "CLASSIFICATION_TYPE": "U", "NORAD_CAT_ID": 33777, "ELEMENT_SET_NO": 999, "REV_AT_EPOCH": 88381, "BSTAR": 0.0011991, "MEAN_MOTION_DOT": 5.237e-05, "MEAN_MOTION_DDOT": 0}, "tle": {"line1": "1 33777U 97051Q   25336.24640012  .00005237  00000+0  11991-2 0  9996", "line2": "2 33777  86.3802  39.7670 0005194 298.3236  61.7448 14.55480765883813"}}, "geometry": {"type": "Point", "coordinates": [-140.80430249567615, 4.538196410964248]}}, {"type": "Feature", "properties": {"norad_id": 33850, "name": "IRIDIUM 33 DEB", "group": "iridium-33-debris", "lat": -73.56845204084341, "lon": -133.0629034842718, "alt_km": 755.1902294845786, "timestamp": "2025-12-02T21:34:01.655616+00:00", "meta": {"OBJECT_NAME": "IRIDIUM 33 DEB", "OBJECT_ID": "1997-051T", "EPOCH": "2025-12-02T10:27:07.898112", "MEAN_MOTION": 14.42109256, "ECCENTRICITY": 0.001112, "INCLINATION": 86.3425, "RA_OF_ASC_NODE": 34.6097, "ARG_OF_PERICENTER": 193.5905, "MEAN_ANOMALY": 177.4172, "EPHEMERIS_TYPE": 0, "CLASSIFICATION_TYPE": "U", "NORAD_CAT_ID": 33850, "ELEMENT_SET_NO": 999, "REV_AT_EPOCH": 88004, "BSTAR": 0.00058424, "MEAN_MOTION_DOT": 1.941e-05, "MEAN_MOTION_DDOT": 0}, "tle": {"line1": "1 33850U 97051T   25336.43550808  .00001941  00000+0  58424-3 0  9993", "line2": "2 33850  86.3425  34.6097 0011120 193.5905 177.4172 14.42109256880048"}}, "geometry": {"type": "Point", "coordinates": [-133.0629034842718, -73.56845204084341]}}, {"type": "Feature", "properties": {"norad_id": 33853, "name": "IRIDIUM 33 DEB", "group": "iridium-33-debris", "lat": 4.3261045512064165, "lon": -5.5692051443797315, "alt_km": 918.2541893695743, "timestamp": "2025-12-02T21:34:01.655628+00:00", "meta": {"OBJECT_NAME": "IRIDIUM 33 DEB", "OBJECT_ID": "1997-051W", "EPOCH": "2025-12-02T11:59:57.630912", "MEAN_MOTION": 13.98950763, "ECCENTRICITY": 0.0206842, "INCLINATION": 86.0006, "RA_OF_ASC_NODE": 354.3022, "ARG_OF_PERICENTER": 267.47, "MEAN_ANOMALY": 248.1232, "EPHEMERIS_TYPE": 0, "CLASSIFICATION_TYPE": "U", "NORAD_CAT_ID": 33853, "ELEMENT_SET_NO": 999, "REV_AT_EPOCH": 85202, "BSTAR": 0.0027198, "MEAN_MOTION_DOT": 4.731e-05, "MEAN_MOTION_DDOT": 0}, "tle": {"line1": "1 33853U 97051W   25336.49997258  .00004731  00000+0  27198-2 0  9999", "line2": "2 33853  86.0006 354.3022 0206842 267.4700 248.1232 13.98950763852021"}}, "geometry": {"type": "Point", "coordinates": [-5.5692051443797315, 4.3261045512064165]}}, {"type": "Feature", "properties": {"norad_id": 33860, "name": "IRIDIUM 33 DEB", "group": "iridium-33-debris", "lat": 18.315433436201292, "lon": 32.79227154757744, "alt_km": 664.6054231107837, "timestamp": "2025-12-02T21:34:01.655640+00:00", "meta": {"OBJECT_NAME": "IRIDIUM 33 DEB", "OBJECT_ID": "1997-051AD", "EPOCH": "2025-12-02T10:04:20.166240", "MEAN_MOTION": 14.67141398, "ECCENTRICITY": 0.0008703, "INCLINATION": 86.3853, "RA_OF_ASC_NODE": 31.805, "ARG_OF_PERICENTER": 31.5096, "MEAN_ANOMALY": 338.928, "EPHEMERIS_TYPE": 0, "CLASSIFICATION_TYPE": "U", "NORAD_CAT_ID": 33860, "ELEMENT_SET_NO": 999, "REV_AT_EPOCH": 88571, "BSTAR": 0.0015472, "MEAN_MOTION_DOT": 8.725e-05, "MEAN_MOTION_DDOT": 0}, "tle": {"line1": "1 33860U 97051AD  25336.41967785  .00008725  00000+0  15472-2 0  9990", "line2": "2 33860  86.3853  31.8050 0008703  31.5096 338.9280 14.67141398885710"}}, "geometry": {"type": "Point", "coordinates": [32.79227154757744, 18.315433436201292]}}, {"type": "Feature", "properties": {"norad_id": 33862, "name": "IRIDIUM 33 DEB", "group": "iridium-33-debris", "lat": -20.481321837024918, "lon": 40.52504606002072, "alt_km": 689.201825272653, "timestamp": "2025-12-02T21:34:01.655651+00:00", "meta": {"OBJECT_NAME": "IRIDIUM 33 DEB", "OBJECT_ID": "1997-051AF", "EPOCH": "2025-12-02T12:19:10.661376", "MEAN_MOTION": 14.69195209, "ECCENTRICITY": 0.0054081, "INCLINATION": 86.4104, "RA_OF_ASC_NODE": 42.0383, "ARG_OF_PERICENTER": 103.3059, "MEAN_ANOMALY": 0.1809, "EPHEMERIS_TYPE": 0, "CLASSIFICATION_TYPE": "U", "NORAD_CAT_ID": 33862, "ELEMENT_SET_NO": 999, "REV_AT_EPOCH": 88673, "BSTAR": 0.0016584, "MEAN_MOTION_DOT": 0.00010012, "MEAN_MOTION_DDOT": 0}, "tle": {"line1": "1 33862U 97051AF  25336.51331784  .00010012  00000+0  16584-2 0  9994", "line2": "2 33862  86.4104  42.0383 0054081 103.3059   0.1809 14.69195209886732"}}, "geometry": {"type": "Point", "coordinates": [40.52504606002072, -20.481321837024918]}}, {"type": "Feature", "properties": {"norad_id": 33866, "name": "IRIDIUM 33 DEB", "group": "iridium-33-debris", "lat": 15.004582998213708, "lon": -83.79509275685902, "alt_km": 736.3592880766691, "timestamp": "2025-12-02T21:34:01.655662+00:00", "meta": {"OBJECT_NAME": "IRIDIUM 33 DEB", "OBJECT_ID": "1997-051AK", "EPOCH": "2025-12-02T09:16:49.286784", "MEAN_MOTION": 14.25214151, "ECCENTRICITY": 0.0113553, "INCLINATION": 86.2996, "RA_OF_ASC_NODE": 97.4154, "ARG_OF_PERICENTER": 194.4354, "MEAN_ANOMALY": 225.9718, "EPHEMERIS_TYPE": 0, "CLASSIFICATION_TYPE": "U", "NORAD_CAT_ID": 33866, "ELEMENT_SET_NO": 999, "REV_AT_EPOCH": 86663, "BSTAR": 0.00084931, "MEAN_MOTION_DOT": 2.153e-05, "MEAN_MOTION_DDOT": 0}, "tle": {"line1": "1 33866U 97051AK  25336.38668156  .00002153  00000+0  84931-3 0  9998", "line2": "2 33866  86.2996  97.4154 0113553 194.4354 225.9718 14.25214151866635"}}, "geometry": {"type": "Point", "coordinates": [-83.79509275685902, 15.004582998213708]}}]}